{"type": "FeatureCollection", "features": [ {"type": "Feature", "properties": {"norad_id": 38159, "name": "FENGYUN 1C DEB", "group": "fengyun-1c-debris", "lat": -73.80285496484716, "lon": 18.73480021454429, "alt_km": 894.8521686897984, "timestamp": "2025-12-07T14:37:05.494379+00:00", "meta": {"OBJECT_NAME": "FENGYUN 1C DEB", "OBJECT_ID": "1999-025ERG", "EPOCH": "2025-12-04T22:05:20.152032", "MEAN_MOTION": 14.03448484, "ECCENTRICITY": 0.005704, "INCLINATION": 99.3156, "RA_OF_ASC_NODE": 230.39, "ARG_OF_PERICENTER": 2.347, "MEAN_ANOMALY": 357.7952, "EPHEMERIS_TYPE": 0, "CLASSIFICATION_TYPE": "U", "NORAD_CAT_ID": 38159, "ELEMENT_SET_NO": 999, "REV_AT_EPOCH": 83002, "BSTAR": 0.0010527, "MEAN_MOTION_DOT": 1.625e-05, "MEAN_MOTION_DDOT": 0}, "tle": {"line1": "1 38159U 99025ERG 25338.92037213  .00001625  00000+0  10527-2 0  9999", "line2": "2 38159  99.3156 230.3900 0057040   2.3470 357.7952 14.03448484830021"}}, "geometry": {"type": "Point", "coordinates": [18.73480021454429, -73.80285496484716]}}, {"type": "Feature", "properties": {"norad_id": 38163, "name": "FENGYUN 1C DEB", "group": "fengyun-1c-debris", "lat": 46.83744732417629, "lon": -152.02691817076433, "alt_km": 899.9502930367707, "timestamp": "2025-12-07T14:37:05.494389+00:00", "meta": {"OBJECT_NAME": "FENGYUN 1C DEB", "OBJECT_ID": "1999-025ERL", "EPOCH": "2025-12-06T20:54:11.718144", "MEAN_MOTION": 14.05894103, "ECCENTRICITY": 0.00756885, "INCLINATION": 99.1294, "RA_OF_ASC_NODE": 17.3567, "ARG_OF_PERICENTER": 258.703, "MEAN_ANOMALY": 100.5626, "EPHEMERIS_TYPE": 0, "CLASSIFICATION_TYPE": "U", "NORAD_CAT_ID": 38163, "ELEMENT_SET_NO": 999, "REV_AT_EPOCH": 24459, "BSTAR": 0.0012497724, "MEAN_MOTION_DOT": 2.053e-05, "MEAN_MOTION_DDOT": 0}, "tle": {"line1": "1 38163U 99025ERL 25340.87096896  .00002053  00000+0  12498-2 0  9998", "line2": "2 38163  99.1294  17.3567 0075688 258.7030 100.5626 14.05894103244594"}}, "geometry": {"type": "Point", "coordinates": [-152.02691817076433, 46.83744732417629]}}, {"type": "Feature", "properties": {"norad_id": 38166, "name": "FENGYUN 1C DEB", "group": "fengyun-1c-debris", "lat": -80.734302152544, "lon": 163.0184279981535, "alt_km": 828.6938673899549, "timestamp": "2025-12-07T14:37:05.494399+00:00", "meta": {"OBJECT_NAME": "FENGYUN 1C DEB", "OBJECT_ID": "1999-025ERP", "EPOCH": "2025-12-06T00:25:47.622720", "MEAN_MOTION": 14.30803528, "ECCENTRICITY": 0.00530343, "INCLINATION": 99.0789, "RA_OF_ASC_NODE": 82.7998, "ARG_OF_PERICENTER": 65.2364, "MEAN_ANOMALY": 295.4323, "EPHEMERIS_TYPE": 0, "CLASSIFICATION_TYPE": "U", "NORAD_CAT_ID": 38166, "ELEMENT_SET_NO": 999, "REV_AT_EPOCH": 63676, "BSTAR": 0.0042389373, "MEAN_MOTION_DOT": 0.00011252, "MEAN_MOTION_DDOT": 0}, "tle": {"line1": "1 38166U 99025ERP 25340.01791230  .00011252  00000+0  42389-2 0  9994", "line2": "2 38166  99.0789  82.7998 0053034  65.2364 295.4323 14.30803528636762"}}, "geometry": {"type": "Point", "coordinates": [163.0184279981535, -80.734302152544]}}, {"type": "Feature", "properties": {"norad_id": 38169, "name": "FENGYUN 1C DEB", "group": "fengyun-1c-debris", "lat": 23.302691939173695, "lon": -48.60313794664778, "alt_km": 645.3202566950476, "timestamp": "2025-12-07T14:37:05.494409+00:00", "meta": {"OBJECT_NAME": "FENGYUN 1C DEB", "OBJECT_ID": "1999-025ERS", "EPOCH": "2025-11-22T03:51:43.920000", "MEAN_MOTION": 14.70462609, "ECCENTRICITY": 0.00311315, "INCLINATION": 98.9783, "RA_OF_ASC_NODE": 298.2991, "ARG_OF_PERICENTER": 127.7379, "MEAN_ANOMALY": 232.6652, "EPHEMERIS_TYPE": 0, "CLASSIFICATION_TYPE": "U", "NORAD_CAT_ID": 38169, "ELEMENT_SET_NO": 999, "REV_AT_EPOCH": 60966, "BSTAR": 0.0026738914, "MEAN_MOTION_DOT": 0.00016302, "MEAN_MOTION_DDOT": 0}, "tle": {"line1": "1 38169U 99025ERS 25326.16092500  .00016302  00000+0  26739-2 0  9993", "line2": "2 38169  98.9783 298.2991 0031131 127.7379 232.6652 14.70462609609660"}}, "geometry": {"type": "Point", "coordinates": [-48.60313794664778, 23.302691939173695]}}, {"type": "Feature", "properties": {"norad_id": 38173, "name": "FENGYUN 1C DEB", "group": "fengyun-1c-debris", "lat": -68.62174890759151, "lon": 37.70478620557259, "alt_km": 836.5992671668118, "timestamp": "2025-12-07T14:37:05.494420+00:00", "meta": {"OBJECT_NAME": "FENGYUN 1C DEB", "OBJECT_ID": "1999-025ERW", "EPOCH": "2025-11-24T11:18:51.497568", "MEAN_MOTION": 14.37024249, "ECCENTRICITY": 0.01622994, "INCLINATION": 98.9991, "RA_OF_ASC_NODE": 227.8463, "ARG_OF_PERICENTER": 166.3393, "MEAN_ANOMALY": 194.2263, "EPHEMERIS_TYPE": 0, "CLASSIFICATION_TYPE": "U", "NORAD_CAT_ID": 38173, "ELEMENT_SET_NO": 999, "REV_AT_EPOCH": 60381, "BSTAR": 0.00095115, "MEAN_MOTION_DOT": 3.231e-05, "MEAN_MOTION_DDOT": 0}, "tle": {"line1": "1 38173U 99025ERW 25328.47142937  .00003231  00000+0  95115-3 0  9996", "line2": "2 38173  98.9991 227.8463 0162299 166.3393 194.2263 14.37024249603812"}}, "geometry": {"type": "Point", "coordinates": [37.70478620557259, -68.62174890759151]}}, {"type": "Feature", "properties": {"norad_id": 38491, "name": "FENGYUN 1C DEB", "group": "fengyun-1c-debris", "lat": 61.523516145147745, "lon": -175.17035596612314, "alt_km": 858.9883794198877, "timestamp": "2025-12-07T14:37:05.494430+00:00", "meta": {"OBJECT_NAME": "FENGYUN 1C DEB", "OBJECT_ID": "1999-025ESA", "EPOCH": "2025-11-07T18:37:17.530176", "MEAN_MOTION": 13.96213514, "ECCENTRICITY": 0.02268827, "INCLINATION": 98.9363, "RA_OF_ASC_NODE": 318.985, "ARG_OF_PERICENTER": 122.5823, "MEAN_ANOMALY": 239.7468, "EPHEMERIS_TYPE": 0, "CLASSIFICATION_TYPE": "U", "NORAD_CAT_ID": 38491, "ELEMENT_SET_NO": 999, "REV_AT_EPOCH": 65972, "BSTAR": 0.00032180703, "MEAN_MOTION_DOT": 5.09e-06, "MEAN_MOTION_DDOT": 0}, "tle": {"line1": "1 38491U 99025ESA 25311.77589734  .00000509  00000+0  32181-3 0  9993", "line2": "2 38491  98.9363 318.9850 0226882 122.5823 239.7468 13.96213514659723"}}, "geometry": {"type": "Point", "coordinates": [-175.17035596612314, 61.523516145147745]}}, {"type": "Feature", "properties": {"norad_id": 38492, "name": "FENGYUN 1C DEB", "group": "fengyun-1c-debris", "lat": 79.6317763916705, "lon": -2.1655943643152824, "alt_km": 873.0427394863564, "timestamp": "2025-12-07T14:37:05.494440+00:00", "meta": {"OBJECT_NAME": "FENGYUN 1C DEB", "OBJECT_ID": "1999-025ESB", "EPOCH": "2025-11-07T22:24:32.618304", "MEAN_MOTION": 13.93045648, "ECCENTRICITY": 0.02334575, "INCLINATION": 98.6097, "RA_OF_ASC_NODE": 26.0841, "ARG_OF_PERICENTER": 245.4391, "MEAN_ANOMALY": 112.2279, "EPHEMERIS_TYPE": 0, "CLASSIFICATION_TYPE": "U", "NORAD_CAT_ID": 38492, "ELEMENT_SET_NO": 999, "REV_AT_EPOCH": 55519, "BSTAR": 0.0058484062, "MEAN_MOTION_DOT": 9.486e-05, "MEAN_MOTION_DDOT": 0}, "tle": {"line1": "1 38492U 99025ESB 25311.93371086  .00009486  00000+0  58484-2 0  9997", "line2": "2 38492  98.6097  26.0841 0233457 245.4391 112.2279 13.93045648555192"}}, "geometry": {"type": "Point", "coordinates": [-2.1655943643152824, 79.6317763916705]}}, {"type": "Feature", "properties": {"norad_id": 38493, "name": "FENGYUN 1C DEB", "group": "fengyun-1c-debris", "lat": 35.363372562141414, "lon": -65.17064258036629, "alt_km": 1250.9422769446737, "timestamp": "2025-12-07T14:37:05.494450+00:00", "meta": {"OBJECT_NAME": "FENGYUN 1C DEB", "OBJECT_ID": "1999-025ESC", "EPOCH": "2025-12-06T03:10:56.878464", "MEAN_MOTION": 13.62307359, "ECCENTRICITY": 0.04264538, "INCLINATION": 99.0785, "RA_OF_ASC_NODE": 299.9654, "ARG_OF_PERICENTER": 262.3954, "MEAN_ANOMALY": 92.857, "EPHEMERIS_TYPE": 0, "CLASSIFICATION_TYPE": "U", "NORAD_CAT_ID": 38493, "ELEMENT_SET_NO": 999, "REV_AT_EPOCH": 56408, "BSTAR": 0.00068037536, "MEAN_MOTION_DOT": 9.28e-06, "MEAN_MOTION_DDOT": 0}, "tle": {"line1": "1 38493U 99025ESC 25340.13260276  .00000928  00000+0  68038-3 0  9999", "line2": "2 38493  99.0785 299.9654 0426453 262.3954  92.8570 13.62307359564089"}}, "geometry": {"type": "Point", "coordinates": [-65.17064258036629, 35.363372562141414]}}, {"type": "Feature", "properties": {"norad_id": 38494, "name": "FENGYUN 1C DEB", "group": "fengyun-1c-debris", "lat": 75.48420469274942, "lon": -102.76673354130845, "alt_km": 716.8138688862437, "timestamp": "2025-12-07T14:37:05.494460+00:00", "meta": {"OBJECT_NAME": "FENGYUN 1C DEB", "OBJECT_ID": "1999-025ESD", "EPOCH": "2025-12-04T02:13:11.134272", "MEAN_MOTION": 13.99763364, "ECCENTRICITY": 0.03867998, "INCLINATION": 98.4342, "RA_OF_ASC_NODE": 288.9449, "ARG_OF_PERICENTER": 33.497, "MEAN_ANOMALY": 329.0026, "EPHEMERIS_TYPE": 0, "CLASSIFICATION_TYPE": "U", "NORAD_CAT_ID": 38494, "ELEMENT_SET_NO": 999, "REV_AT_EPOCH": 7033, "BSTAR": 0.010812505, "MEAN_MOTION_DOT": 0.00030392, "MEAN_MOTION_DDOT": 0}, "tle": {"line1": "1 38494U 99025ESD 25338.09248998  .00030392  00000+0  10813-1 0  9993", "line2": "2 38494  98.4342 288.9449 0386799  33.4970 329.0026 13.99763364 70338"}}, "geometry": {"type": "Point", "coordinates": [-102.76673354130845, 75.48420469274942]}}, {"type": "Feature", "properties": {"norad_id": 38495, "name": "FENGYUN 1C DEB", "group": "fengyun-1c-debris", "lat": 46.45642567431848, "lon": -11.591806581232147, "alt_km": 1041.2134759417677, "timestamp": "2025-12-07T14:37:05.494470+00:00", "meta": {"OBJECT_NAME": "FENGYUN 1C DEB", "OBJECT_ID": "1999-025ESE", "EPOCH": "2025-12-02T06:20:41.771904", "MEAN_MOTION": 13.69106573, "ECCENTRICITY": 0.0252581, "INCLINATION": 99.1709, "RA_OF_ASC_NODE": 353.1036, "ARG_OF_PERICENTER": 165.9119, "MEAN_ANOMALY": 194.9245, "EPHEMERIS_TYPE": 0, "CLASSIFICATION_TYPE": "U", "NORAD_CAT_ID": 38495, "ELEMENT_SET_NO": 999, "REV_AT_EPOCH": 60969, "BSTAR": 0.0025866, "MEAN_MOTION_DOT": 2.759e-05, "MEAN_MOTION_DDOT": 0}, "tle": {"line1": "1 38495U 99025ESE 25336.26437236  .00002759  00000+0  25866-2 0  9997", "line2": "2 38495  99.1709 353.1036 0252581 165.9119 194.9245 13.69106573609697"}}, "geometry": {"type": "Point", "coordinates": [-11.591806581232147, 46.45642567431848]}}]}